OBJECT_NAME,OBJECT_ID,EPOCH,MEAN_MOTION,ECCENTRICITY,INCLINATION,RA_OF_ASC_NODE,ARG_OF_PERICENTER,MEAN_ANOMALY,EPHEMERIS_TYPE,CLASSIFICATION_TYPE,NORAD_CAT_ID,ELEMENT_SET_NO,REV_AT_EPOCH,BSTAR,MEAN_MOTION_DOT,MEAN_MOTION_DDOT
STARLINK-3821,2022-045AC,2026-05-17T16:53:21.821856,15.08834301,.00011223,53.2147,249.3062,88.9451,271.1670,0,U,52357,999,22620,-.18472848E-4,-.582E-5,0
STARLINK-3837,2022-045AD,2026-05-18T00:23:47.811840,15.08829170,.0001759,53.2192,247.9022,93.5103,266.6091,0,U,52358,999,22625,-.18503E-3,-.3231E-4,0
STARLINK-3853,2022-045AE,2026-05-18T00:46:22.264032,15.08839189,.0001323,53.2161,247.8426,89.6358,270.4785,0,U,52359,999,22625,-.37609E-4,-.886E-5,0
STARLINK-3728,2022-045AG,2026-05-18T00:34:23.456640,15.08835823,.0000781,53.2147,247.8718,91.0489,269.0592,0,U,52361,999,22625,.46919E-5,-.213E-5,0
STARLINK-3848,2022-045AH,2026-05-18T00:09:13.582944,15.08833526,.0001266,53.2157,237.9457,87.7145,272.3992,0,U,52362,999,22638,-.325E-4,-.805E-5,0
STARLINK-3830,2022-045AJ,2026-05-17T16:32:09.985344,15.08822252,.00014216,53.2183,249.3769,91.9300,268.1855,0,U,52363,999,22620,-.45622863E-3,-.7538E-4,0
STARLINK-3820,2022-045AK,2026-05-17T23:48:00.686304,15.08831964,.0000953,53.2166,237.9246,91.8316,268.2785,0,U,52364,999,22638,-.13613E-3,-.2453E-4,0
STARLINK-3874,2022-045AL,2026-05-17T13:12:07.401888,15.08833008,.0001302,53.2165,239.9930,97.9149,262.1991,0,U,52365,999,22631,-.55912381E-4,-.1177E-4,0
STARLINK-3808,2022-045AM,2026-05-17T23:53:19.771008,15.08834373,.0001229,53.2155,237.9972,87.3851,272.7282,0,U,52366,999,22638,-.22746E-4,-.65E-5,0
STARLINK-3817,2022-045AN,2026-05-17T12:56:13.912224,15.08830593,.00012611,53.2166,240.0452,85.2891,274.8246,0,U,52367,999,22631,-.48358404E-4,-.1057E-4,0
STARLINK-3834,2022-045AP,2026-05-17T23:37:26.063616,15.08830952,.0001217,53.2177,238.0457,84.0278,276.0852,0,U,52368,999,22637,-.4749E-4,-.1043E-4,0
STARLINK-3841,2022-045AQ,2026-05-17T23:58:38.146368,15.08832495,.0001525,53.2186,237.9802,77.1801,282.9362,0,U,52369,999,22638,-.53939E-4,-.1146E-4,0
STARLINK-3827,2022-045AR,2026-05-17T23:49:24.640320,15.08836023,.0001402,53.2184,238.0191,95.9075,264.2077,0,U,52370,999,22638,-.7207E-4,-.1435E-4,0
STARLINK-3798,2022-045AS,2026-05-17T23:44:06.576000,15.08835980,.0001269,53.2158,238.0367,88.4139,271.6999,0,U,52371,999,22637,-.50278E-4,-.1088E-4,0
STARLINK-3796,2022-045AT,2026-05-17T23:32:08.438208,15.08828276,.0001161,53.2176,238.0615,85.3668,274.7457,0,U,52372,999,22637,-.62294E-4,-.1279E-4,0
STARLINK-3550,2022-045AU,2026-05-18T05:37:47.202240,15.08828720,.0001146,53.2169,236.9199,81.0143,279.0979,0,U,52373,999,22642,-.82457E-4,-.1599E-4,0
STARLINK-3762,2022-045AV,2026-05-17T16:59:59.495136,15.08828346,.00011488,53.2164,239.2846,93.9074,266.2050,0,U,52374,999,22634,-.51797101E-4,-.1112E-4,0
STARLINK-3785,2022-045AW,2026-05-17T23:26:50.355744,15.08828550,.0001251,53.2170,238.0785,90.1141,269.9994,0,U,52375,999,22638,-.35417E-4,-.851E-5,0
STARLINK-3805,2022-045AY,2026-05-17T15:45:51.020064,15.08824262,.00016622,53.2197,239.7371,110.7232,249.3939,0,U,52377,999,22632,-.8969097E-4,-.1715E-4,0
STARLINK-3806,2022-045AZ,2026-05-17T16:38:47.453856,15.08830566,.00014714,53.2167,239.3519,96.4526,263.6634,0,U,52378,999,22634,-.44367265E-4,-.994E-5,0
STARLINK-3800,2022-045BA,2026-05-17T16:44:04.714656,15.08828725,.00010731,53.2172,239.3354,85.2479,274.8636,0,U,52379,999,22634,.18539909E-4,.7E-7,0
STARLINK-3793,2022-045BB,2026-05-18T04:56:43.145952,15.08830533,.0001331,53.2170,227.0797,91.5429,268.5715,0,U,52380,999,22655,-.91383E-4,-.1742E-4,0
STARLINK-3799,2022-045BD,2026-05-18T04:00:01.998720,15.23235738,.0001012,53.2136,234.6244,130.5251,231.7075,0,U,52382,999,585,.37173E-2,.89918E-3,0
STARLINK-3811,2022-045BE,2026-05-17T23:22:51.663648,15.08837131,.0001333,53.2140,228.1215,85.5339,274.5806,0,U,52383,999,22652,.84886E-5,-.153E-5,0
BRO-6,2022-047AE,2026-05-18T05:42:51.706080,15.48654177,.0005435,97.3401,228.7644,167.8353,192.3029,0,U,52422,999,22651,.47331E-3,.25269E-3,0
JILIN-1 KUANFU 01C,2022-048A,2026-05-18T04:52:49.063296,15.10055463,.0016843,97.5260,215.9208,70.8126,289.4925,0,U,52443,999,22267,.11155E-3,.1757E-4,0
JILIN-1 GAOFEN 3D27,2022-048B,2026-05-18T05:40:03.707328,15.68960648,.0005393,97.5693,249.6253,155.7043,204.4474,0,U,52444,999,22477,.50029E-3,.57735E-3,0
JILIN-1 GAOFEN 3D28,2022-048C,2026-05-18T03:45:22.305024,15.71094543,.0004318,97.5630,249.5923,173.2024,186.9297,0,U,52445,999,22480,.52903E-3,.66743E-3,0
JILIN-1 GAOFEN 3D29,2022-048D,2026-05-18T03:55:58.248768,15.69150495,.0003034,97.5691,249.8972,151.9848,208.1577,0,U,52446,999,22478,.5136E-3,.5972E-3,0
JILIN-1 GAOFEN 3D30,2022-048E,2026-05-17T23:17:58.506720,15.82888767,.0004713,97.5648,252.6457,172.4729,187.6611,0,U,52447,999,22496,.717E-3,.153752E-2,0
