STARLINK-3821           
1 52357U 22045AC  26137.70372479 -.00000582  00000+0 -18473-4 0  9996
2 52357  53.2147 249.3062 0001122  88.9451 271.1670 15.08834301226202
STARLINK-3837           
1 52358U 22045AD  26138.01652560 -.00003231  00000+0 -18503-3 0  9991
2 52358  53.2192 247.9022 0001759  93.5103 266.6091 15.08829170226254
STARLINK-3853           
1 52359U 22045AE  26138.03220213 -.00000886  00000+0 -37609-4 0  9992
2 52359  53.2161 247.8426 0001323  89.6358 270.4785 15.08839189226257
STARLINK-3728           
1 52361U 22045AG  26138.02388260 -.00000213  00000+0  46919-5 0  9999
2 52361  53.2147 247.8718 0000781  91.0489 269.0592 15.08835823226258
STARLINK-3848           
1 52362U 22045AH  26138.00640721 -.00000805  00000+0 -32500-4 0  9999
2 52362  53.2157 237.9457 0001266  87.7145 272.3992 15.08833526226383
STARLINK-3830           
1 52363U 22045AJ  26137.68900446 -.00007538  00000+0 -45623-3 0  9995
2 52363  53.2183 249.3769 0001421  91.9300 268.1855 15.08822252226205
STARLINK-3820           
1 52364U 22045AK  26137.99167461 -.00002453  00000+0 -13613-3 0  9997
2 52364  53.2166 237.9246 0000953  91.8316 268.2785 15.08831964226387
STARLINK-3874           
1 52365U 22045AL  26137.55008567 -.00001177  00000+0 -55912-4 0  9992
2 52365  53.2165 239.9930 0001302  97.9149 262.1991 15.08833008226315
STARLINK-3808           
1 52366U 22045AM  26137.99536772 -.00000650  00000+0 -22746-4 0  9999
2 52366  53.2155 237.9972 0001229  87.3851 272.7282 15.08834373226383
STARLINK-3817           
1 52367U 22045AN  26137.53904991 -.00001057  00000+0 -48358-4 0  9991
2 52367  53.2166 240.0452 0001261  85.2891 274.8246 15.08830593226317
STARLINK-3834           
1 52368U 22045AP  26137.98432944 -.00001043  00000+0 -47490-4 0  9996
2 52368  53.2177 238.0457 0001217  84.0278 276.0852 15.08830952226371
STARLINK-3841           
1 52369U 22045AQ  26137.99905262 -.00001146  00000+0 -53939-4 0  9995
2 52369  53.2186 237.9802 0001525  77.1801 282.9362 15.08832495226388
STARLINK-3827           
1 52370U 22045AR  26137.99264630 -.00001435  00000+0 -72070-4 0  9992
2 52370  53.2184 238.0191 0001402  95.9075 264.2077 15.08836023226383
STARLINK-3798           
1 52371U 22045AS  26137.98896500 -.00001088  00000+0 -50278-4 0  9999
2 52371  53.2158 238.0367 0001269  88.4139 271.6999 15.08835980226374
STARLINK-3796           
1 52372U 22045AT  26137.98065322 -.00001279  00000+0 -62294-4 0  9993
2 52372  53.2176 238.0615 0001161  85.3668 274.7457 15.08828276226378
STARLINK-3550           
1 52373U 22045AU  26138.23457410 -.00001599  00000+0 -82457-4 0  9994
2 52373  53.2169 236.9199 0001146  81.0143 279.0979 15.08828720226426
STARLINK-3762           
1 52374U 22045AV  26137.70832749 -.00001112  00000+0 -51797-4 0  9992
2 52374  53.2164 239.2846 0001148  93.9074 266.2050 15.08828346226347
STARLINK-3785           
1 52375U 22045AW  26137.97697171 -.00000851  00000+0 -35417-4 0  9990
2 52375  53.2170 238.0785 0001251  90.1141 269.9994 15.08828550226381
STARLINK-3805           
1 52377U 22045AY  26137.65684051 -.00001715  00000+0 -89691-4 0  9993
2 52377  53.2197 239.7371 0001662 110.7232 249.3939 15.08824262226328
STARLINK-3806           
1 52378U 22045AZ  26137.69360479 -.00000994  00000+0 -44367-4 0  9992
2 52378  53.2167 239.3519 0001471  96.4526 263.6634 15.08830566226347
STARLINK-3800           
1 52379U 22045BA  26137.69727679  .00000007  00000+0  18540-4 0  9999
2 52379  53.2172 239.3354 0001073  85.2479 274.8636 15.08828725226342
STARLINK-3793           
1 52380U 22045BB  26138.20605493 -.00001742  00000+0 -91383-4 0  9993
2 52380  53.2170 227.0797 0001331  91.5429 268.5715 15.08830533226550
STARLINK-3799           
1 52382U 22045BD  26138.16668980  .00089918  00000+0  37173-2 0  9994
2 52382  53.2136 234.6244 0001012 130.5251 231.7075 15.23235738  5850
STARLINK-3811           
1 52383U 22045BE  26137.97420907 -.00000153  00000+0  84886-5 0  9999
2 52383  53.2140 228.1215 0001333  85.5339 274.5806 15.08837131226528
BRO-6                   
1 52422U 22047AE  26138.23809845  .00025269  00000+0  47331-3 0  9993
2 52422  97.3401 228.7644 0005435 167.8353 192.3029 15.48654177226514
JILIN-1 KUANFU 01C      
1 52443U 22048A   26138.20334564  .00001757  00000+0  11155-3 0  9996
2 52443  97.5260 215.9208 0016843  70.8126 289.4925 15.10055463222670
JILIN-1 GAOFEN 3D27     
1 52444U 22048B   26138.23615402  .00057735  00000+0  50029-3 0  9993
2 52444  97.5693 249.6253 0005393 155.7043 204.4474 15.68960648224776
JILIN-1 GAOFEN 3D28     
1 52445U 22048C   26138.15650816  .00066743  00000+0  52903-3 0  9995
2 52445  97.5630 249.5923 0004318 173.2024 186.9297 15.71094543224808
JILIN-1 GAOFEN 3D29     
1 52446U 22048D   26138.16386862  .00059720  00000+0  51360-3 0  9997
2 52446  97.5691 249.8972 0003034 151.9848 208.1577 15.69150495224785
JILIN-1 GAOFEN 3D30     
1 52447U 22048E   26137.97081605  .00153752  00000+0  71700-3 0  9993
2 52447  97.5648 252.6457 0004713 172.4729 187.6611 15.82888767224964
